{
  "type": "FeatureCollection",
  "features": [
    {
      "type": "Feature",
      "properties": {
        "norad_id": 41026,
        "name": "YAOGAN-28",
        "group": "resource",
        "lat": 5.134041004261071,
        "lon": -49.13672168933752,
        "alt_km": 491.5158348986897,
        "timestamp": "2025-12-18T13:51:49.317957+00:00",
        "meta_object_name": "YAOGAN-28",
        "meta_object_id": "2015-064A",
        "meta_epoch": "2025-12-18T08:22:29.502912",
        "meta_mean_motion": 15.24444593,
        "meta_eccentricity": 0.00125725,
        "meta_inclination": 97.2806,
        "meta_ra_of_asc_node": 129.9829,
        "meta_arg_of_pericenter": 108.1318,
        "meta_mean_anomaly": 252.129,
        "meta_ephemeris_type": 0,
        "meta_classification_type": "U",
        "meta_norad_cat_id": 41026,
        "meta_element_set_no": 999,
        "meta_rev_at_epoch": 56310,
        "meta_bstar": 0.00029809357,
        "meta_mean_motion_dot": 7.263e-05,
        "meta_mean_motion_ddot": 0,
        "tle_line1": "1 41026U 15064A   25352.34895258  .00007263  00000+0  29809-3 0  9998",
        "tle_line2": "2 41026  97.2806 129.9829 0012572 108.1318 252.1290 15.24444593563103"
      },
      "geometry": {
        "type": "Point",
        "coordinates": [
          -49.13672168933752,
          5.134041004261071
        ]
      }
    },
    {
      "type": "Feature",
      "properties": {
        "norad_id": 41038,
        "name": "YAOGAN-29",
        "group": "resource",
        "lat": 58.92588368877361,
        "lon": -150.69803234814083,
        "alt_km": 614.4794708539057,
        "timestamp": "2025-12-18T13:51:49.317967+00:00",
        "meta_object_name": "YAOGAN-29",
        "meta_object_id": "2015-069A",
        "meta_epoch": "2025-12-18T06:50:46.733568",
        "meta_mean_motion": 14.8288738,
        "meta_eccentricity": 3.55e-05,
        "meta_inclination": 98.0216,
        "meta_ra_of_asc_node": 15.4753,
        "meta_arg_of_pericenter": 198.4026,
        "meta_mean_anomaly": 161.7174,
        "meta_ephemeris_type": 0,
        "meta_classification_type": "U",
        "meta_norad_cat_id": 41038,
        "meta_element_set_no": 999,
        "meta_rev_at_epoch": 54381,
        "meta_bstar": 3.0568399e-05,
        "meta_mean_motion_dot": 1.94e-06,
        "meta_mean_motion_ddot": 0,
        "tle_line1": "1 41038U 15069A   25352.28526312  .00000194  00000+0  30568-4 0  9992",
        "tle_line2": "2 41038  98.0216  15.4753 0000355 198.4026 161.7174 14.82887380543819"
      },
      "geometry": {
        "type": "Point",
        "coordinates": [
          -150.69803234814083,
          58.92588368877361
        ]
      }
    },
    {
      "type": "Feature",
      "properties": {
        "norad_id": 41167,
        "name": "KENT RIDGE 1",
        "group": "resource",
        "lat": -4.765975930681164,
        "lon": 5.996257554986847,
        "alt_km": 492.95380507155005,
        "timestamp": "2025-12-18T13:51:49.317978+00:00",
        "meta_object_name": "KENT RIDGE 1",
        "meta_object_id": "2015-077B",
        "meta_epoch": "2025-12-18T03:33:21.939840",
        "meta_mean_motion": 15.21678305,
        "meta_eccentricity": 0.00085022,
        "meta_inclination": 14.978,
        "meta_ra_of_asc_node": 171.0083,
        "meta_arg_of_pericenter": 207.427,
        "meta_mean_anomaly": 152.5603,
        "meta_ephemeris_type": 0,
        "meta_classification_type": "U",
        "meta_norad_cat_id": 41167,
        "meta_element_set_no": 999,
        "meta_rev_at_epoch": 55346,
        "meta_bstar": 0.00014125959,
        "meta_mean_motion_dot": 4.046e-05,
        "meta_mean_motion_ddot": 0,
        "tle_line1": "1 41167U 15077B   25352.14817060  .00004046  00000+0  14126-3 0  9993",
        "tle_line2": "2 41167  14.9780 171.0083 0008502 207.4270 152.5603 15.21678305553460"
      },
      "geometry": {
        "type": "Point",
        "coordinates": [
          5.996257554986847,
          -4.765975930681164
        ]
      }
    },
    {
      "type": "Feature",
      "properties": {
        "norad_id": 41194,
        "name": "GAOFEN-4",
        "group": "resource",
        "lat": -0.09721207674929837,
        "lon": 41.06587673123212,
        "alt_km": 35794.210207405056,
        "timestamp": "2025-12-18T13:51:49.317993+00:00",
        "meta_object_name": "GAOFEN-4",
        "meta_object_id": "2015-083A",
        "meta_epoch": "2025-12-18T06:57:01.880640",
        "meta_mean_motion": 1.0027381,
        "meta_eccentricity": 0.00029226,
        "meta_inclination": 0.1844,
        "meta_ra_of_asc_node": 81.7336,
        "meta_arg_of_pericenter": 94.1299,
        "meta_mean_anomaly": 121.2536,
        "meta_ephemeris_type": 0,
        "meta_classification_type": "U",
        "meta_norad_cat_id": 41194,
        "meta_element_set_no": 999,
        "meta_rev_at_epoch": 3671,
        "meta_bstar": 0,
        "meta_mean_motion_dot": -3.1e-06,
        "meta_mean_motion_ddot": 0,
        "tle_line1": "1 41194U 15083A   25352.28960510 -.00000310  00000+0  00000+0 0  9997",
        "tle_line2": "2 41194   0.1844  81.7336 0002922  94.1299 121.2536  1.00273810 36714"
      },
      "geometry": {
        "type": "Point",
        "coordinates": [
          41.06587673123212,
          -0.09721207674929837
        ]
      }
    },
    {
      "type": "Feature",
      "properties": {
        "norad_id": 41240,
        "name": "JASON-3",
        "group": "resource",
        "lat": 9.295585028557296,
        "lon": 149.7242651522854,
        "alt_km": 1312.477904925854,
        "timestamp": "2025-12-18T13:51:49.318004+00:00",
        "meta_object_name": "JASON-3",
        "meta_object_id": "2016-002A",
        "meta_epoch": "2025-12-18T06:21:16.832160",
        "meta_mean_motion": 12.87626819,
        "meta_eccentricity": 0.00071927,
        "meta_inclination": 66.0396,
        "meta_ra_of_asc_node": 146.2083,
        "meta_arg_of_pericenter": 271.1486,
        "meta_mean_anomaly": 88.8709,
        "meta_ephemeris_type": 0,
        "meta_classification_type": "U",
        "meta_norad_cat_id": 41240,
        "meta_element_set_no": 999,
        "meta_rev_at_epoch": 46395,
        "meta_bstar": 7.0904595e-05,
        "meta_mean_motion_dot": -4.4e-07,
        "meta_mean_motion_ddot": 0,
        "tle_line1": "1 41240U 16002A   25352.26477815 -.00000044  00000+0  70905-4 0  9990",
        "tle_line2": "2 41240  66.0396 146.2083 0007192 271.1486  88.8709 12.87626819463952"
      },
      "geometry": {
        "type": "Point",
        "coordinates": [
          149.7242651522854,
          9.295585028557296
        ]
      }
    },
    {
      "type": "Feature",
      "properties": {
        "norad_id": 41335,
        "name": "SENTINEL-3A",
        "group": "resource",
        "lat": 77.56905144202794,
        "lon": 13.954530260028669,
        "alt_km": 794.7290261720364,
        "timestamp": "2025-12-18T13:51:49.318014+00:00",
        "meta_object_name": "SENTINEL-3A",
        "meta_object_id": "2016-011A",
        "meta_epoch": "2025-12-18T06:45:10.473408",
        "meta_mean_motion": 14.26732845,
        "meta_eccentricity": 9.128e-05,
        "meta_inclination": 98.6309,
        "meta_ra_of_asc_node": 57.2163,
        "meta_arg_of_pericenter": 92.765,
        "meta_mean_anomaly": 267.3635,
        "meta_ephemeris_type": 0,
        "meta_classification_type": "U",
        "meta_norad_cat_id": 41335,
        "meta_element_set_no": 999,
        "meta_rev_at_epoch": 51226,
        "meta_bstar": 6.5786303e-05,
        "meta_mean_motion_dot": 1.15e-06,
        "meta_mean_motion_ddot": 0,
        "tle_line1": "1 41335U 16011A   25352.28137122  .00000115  00000+0  65786-4 0  9990",
        "tle_line2": "2 41335  98.6309  57.2163 0000912  92.7650 267.3635 14.26732845512268"
      },
      "geometry": {
        "type": "Point",
        "coordinates": [
          13.954530260028669,
          77.56905144202794
        ]
      }
    },
    {
      "type": "Feature",
      "properties": {
        "norad_id": 41556,
        "name": "ZIYUAN 3-02 (ZY 3-02)",
        "group": "resource",
        "lat": 17.860230240493546,
        "lon": 64.2468956810765,
        "alt_km": 509.6252556596937,
        "timestamp": "2025-12-18T13:51:49.318025+00:00",
        "meta_object_name": "ZIYUAN 3-02 (ZY 3-02)",
        "meta_object_id": "2016-033A",
        "meta_epoch": "2025-12-18T07:28:10.123392",
        "meta_mean_motion": 15.21134624,
        "meta_eccentricity": 0.00109008,
        "meta_inclination": 97.4044,
        "meta_ra_of_asc_node": 66.3866,
        "meta_arg_of_pericenter": 225.3972,
        "meta_mean_anomaly": 134.6376,
        "meta_ephemeris_type": 0,
        "meta_classification_type": "U",
        "meta_norad_cat_id": 41556,
        "meta_element_set_no": 999,
        "meta_rev_at_epoch": 53048,
        "meta_bstar": 0.00028001161,
        "meta_mean_motion_dot": 6.174e-05,
        "meta_mean_motion_ddot": 0,
        "tle_line1": "1 41556U 16033A   25352.31122828  .00006174  00000+0  28001-3 0  9999",
        "tle_line2": "2 41556  97.4044  66.3866 0010900 225.3972 134.6376 15.21134624530485"
      },
      "geometry": {
        "type": "Point",
        "coordinates": [
          64.2468956810765,
          17.860230240493546
        ]
      }
    }
  ]
}